satname,norad_id,inclination_deg,eccentricity,mean_motion_rev_per_day,perigee_km,apogee_km,l1,l2
STARLINK-1008,44714,53.1581,0.0001308,15.31051103,471.77892035393415,473.5710927748514,1 44714U 19074B   26064.65912661  .00003432  00000+0  12471-3 0  9994,2 44714  53.1581 197.5006 0001308  77.1641 282.9506 15.31051103348255
STARLINK-1012,44718,53.1615,0.0001118,15.30200993,474.4459000720335,475.9783089317998,1 44718U 19074F   26064.70265501 -.00000051  00000+0  10391-4 0  9993,2 44718  53.1615 197.3258 0001118  76.5728 283.5398 15.30200993348250
STARLINK-1017,44723,53.0553,9.26e-05,15.236885,494.09001332290063,495.3628676320777,1 44723U 19074L   26064.60848700  .00049765  00000+0  20470-2 0  9997,2 44723  53.0553 190.2852 0000926 104.4852 255.6247 15.23688500348342
STARLINK-1019,44724,53.0427,0.0002164,15.80266486,328.2348466094063,331.13799258540894,1 44724U 19074M   26064.91668981  .00044121  00000+0  23224-3 0  9995,2 44724  53.0427 155.6688 0002164 187.6979   2.0691 15.80266486  6047
STARLINK-1020,44725,53.1618,0.0001309,15.30188416,474.3525490600432,476.1467656869436,1 44725U 19074N   26064.81534971 -.00000594  00000+0 -79279-5 0  9997,2 44725  53.1618 221.8429 0001309  91.4407 268.6743 15.30188416347911
STARLINK-1031,44736,53.0395,0.000431,15.88931894,302.39576498052793,308.1568672590238,1 44736U 19074Z   26064.91668981  .00141767  00000+0  48215-3 0  9999,2 44736  53.0395 139.2569 0004310 345.8859 302.7293 15.88931894  5946
STARLINK-1036,44741,53.0501,0.0002841,15.55003665,400.2156984313224,404.0682529453079,1 44741U 19074AE  26064.91668981  .00143796  00000+0  20754-2 0  9996,2 44741  53.0501 206.8053 0002841 249.4424 281.4638 15.55003665  5906
STARLINK-1039,44744,53.0495,0.0004768,15.212182,498.8844433525619,505.44549931242454,1 44744U 19074AH  26064.73973515  .00058422  00000+0  25783-2 0  9999,2 44744  53.0495 233.2440 0004768 162.8399 197.2758 15.21218200347759
STARLINK-1042,44747,53.0435,0.0001998,15.49547159,416.6919510520629,419.40770730900385,1 44747U 19074AL  26064.13892542  .00026437  00000+0  47773-3 0  9991,2 44747  53.0435 116.6230 0001998 113.2859 246.8360 15.49547159349367
STARLINK-1043,44748,53.0532,0.0002212,15.53350843,405.44990462856094,408.4516274562575,1 44748U 19074AM  26064.66918624  .00038576  00000+0  60463-3 0  9998,2 44748  53.0532 213.8926 0002212  82.5361 277.5900 15.53350843348024
STARLINK-1046,44751,53.0539,0.0006045,15.43219142,432.49628425985156,440.7353203978664,1 44751U 19074AQ  26064.72513595  .00044828  00000+0  99698-3 0  9996,2 44751  53.0539 229.6856 0006045 163.3016 196.8189 15.43219142347807
STARLINK-1047,44752,53.0704,0.0002605,15.32478754,466.63602520640234,470.2030811706136,1 44752U 19074AR  26064.64863590  .00012301  00000+0  39775-3 0  9992,2 44752  53.0704 164.8845 0002605 187.1374 172.9590 15.32478754348726
STARLINK-1048,44753,53.052,0.0001051,15.52861461,407.6629689067804,409.0894939880309,1 44753U 19074AS  26064.91668981 -.00008915  00000+0 -13393-3 0  9996,2 44753  53.0520 187.0305 0001051 154.8638 199.6841 15.52861461  5840
STARLINK-1053,44758,53.0273,0.0007392,15.89772528,297.98145075899265,307.85872555812693,1 44758U 19074AX  26064.91668981  .00282442  40247-4  94034-3 0  9991,2 44758  53.0273 102.6858 0007392  41.0476   4.5539 15.89772528  5941
STARLINK-1063,44768,53.1564,0.0003153,15.29569853,474.9357653440511,479.25867604362065,1 44768U 19074BH  26064.70275919 -.00497756  00000+0 -18290-1 0  9998,2 44768  53.1564 237.9130 0003153 141.6398 218.4827 15.29569853347700
STARLINK-1067,44771,53.0512,0.0002852,15.56620204,395.51458531837125,399.37937842163046,1 44771U 19074BL  26064.91668981  .00184044  00000+0  24881-2 0  9995,2 44771  53.0512 222.4731 0002852 320.9912  90.4291 15.56620204  5905
STARLINK-1068,44772,53.0481,0.0002569,15.62647539,378.27672051419177,381.7490579272726,1 44772U 19074BM  26064.91668981  .00161693  00000+0  17439-2 0  9992,2 44772  53.0481 198.3561 0002569 258.7613 113.9246 15.62647539  5935
STARLINK-1112,44925,53.0323,0.000513,16.09411556,245.05859671085273,251.85748322185827,1 44925U 20001M   26064.87775612  .00965148  54382-3  10430-2 0  9996,2 44925  53.0323 260.7732 0005130 281.8918  78.1540 16.09411556340713
STARLINK-1114,44927,53.0505,0.0008504,15.49474866,412.4815611359354,424.04087522541704,1 44927U 20001P   26064.81001896  .00112167  00000+0  19819-2 0  9997,2 44927  53.0505 347.9783 0008504 103.3402 256.8555 15.49474866339495
STARLINK-1123,44930,53.1496,0.0001415,15.28082304,480.5747841234779,482.5160742509388,1 44930U 20001S   26064.91668981 -.00000503  00000+0 -54560-5 0  9993,2 44930  53.1496   2.5826 0001415  79.4807 322.3730 15.28082304  5670
STARLINK-1094,44941,53.1634,6.91e-05,15.3019586,474.75386325878935,475.7009982231175,1 44941U 20001AD  26064.76459247  .00000698  00000+0  35679-4 0  9993,2 44941  53.1634 337.7945 0000691  60.5677 299.5393 15.30195860339633
STARLINK-1122,44949,53.1613,0.0001255,15.30217628,474.3023468148722,476.0225249732821,1 44949U 20001AM  26064.46436286  .00013179  00000+0  45604-3 0  9992,2 44949  53.1613 339.2346 0001255  82.0140 278.1004 15.30217628339584
STARLINK-1080,44961,53.0517,0.0008007,15.46301473,422.1073148782516,433.0059526633722,1 44961U 20001AZ  26064.09332948  .00082612  00000+0  16387-2 0  9998,2 44961  53.0517 310.1427 0008007 105.7944 254.3946 15.46301473339967
STARLINK-1090,44968,53.0844,0.0001846,15.13691322,523.6801459546987,526.2287673204892,1 44968U 20001BG  26064.91668981  .01322059  00000+0  66890-1 0  9991,2 44968  53.0844 323.4508 0001846  73.8150  10.1844 15.13691322  5731
STARLINK-1132,45044,53.1564,0.0004747,15.43136794,433.6231637186538,440.09332020137117,1 45044U 20006A   26064.57783323  .00035272  00000+0  78982-3 0  9996,2 45044  53.1564 273.4422 0004747 174.6627 185.4430 15.43136794336293
STARLINK-1131,45047,53.1583,0.0001448,15.301943,474.2397208006878,476.22445648875873,1 45047U 20006D   26064.09394529  .00000373  00000+0  24744-4 0  9994,2 45047  53.1583 302.3280 0001448  89.4440 270.6727 15.30194300335841
STARLINK-1134,45048,53.0338,0.0009862,15.42993281,430.55944313510736,444.0021732199566,1 45048U 20006E   26064.74173759  .00064320  00000+0  14322-2 0  9998,2 45048  53.0338 257.0816 0009862 160.1620 199.9770 15.42993281336531
STARLINK-1156,45054,53.1607,0.0001511,15.30227467,474.0975300290811,476.168588240952,1 45054U 20006L   26064.38152315 -.00010890  00000+0 -35577-3 0  9991,2 45054  53.1607 301.0040 0001511 129.2512 230.8623 15.30227467335888
STARLINK-1159,45057,53.0447,0.0003466,15.80590585,326.44481813754373,331.09404567614183,1 45057U 20006P   26064.91668981  .00112942  00000+0  57550-3 0  9998,2 45057  53.0447 253.7400 0003466 130.6528 315.8535 15.80590585  6036
STARLINK-1166,45060,53.0528,0.0005542,15.44552886,428.91758353629484,436.46670656066726,1 45060U 20006S   26064.82502457  .00089411  00000+0  18814-2 0  9990,2 45060  53.0528 291.0917 0005542 130.5315 229.6174 15.44552886336060
STARLINK-1169,45061,53.1581,0.0001252,15.30194757,474.372682477906,476.08876575602517,1 45061U 20006T   26064.67546060  .00000912  00000+0  42925-4 0  9993,2 45061  53.1581 299.6418 0001252  95.1165 264.9979 15.30194757335938
STARLINK-1171,45062,53.0467,0.0002056,15.56129789,397.47710659244603,400.2638120597203,1 45062U 20006U   26064.73691912  .00022277  00000+0  31904-3 0  9990,2 45062  53.0467 268.6950 0002056   1.0888 359.0127 15.56129789336370
STARLINK-1133,45064,53.1633,8.39e-05,15.30189026,474.67283701333054,475.8228349888104,1 45064U 20006W   26064.74656379 -.00000938  00000+0 -19569-4 0  9997,2 45064  53.1633 276.1172 0000839  99.6712 260.4383 15.30189026336274
STARLINK-1167,45071,53.1599,0.0001225,15.2935929,476.88658451389074,478.566271053699,1 45071U 20006AD  26063.85742884  .00000652  00000+0  34933-4 0  9996,2 45071  53.1599 280.2695 0001225  86.2299 273.8841 15.29359290336133
STARLINK-1168,45072,53.1608,0.0001613,15.29337458,476.68581341557274,478.8975360060349,1 45072U 20006AE  26064.84749005  .00001845  00000+0  76293-4 0  9999,2 45072  53.1608 275.7338 0001613 119.7053 240.4108 15.29337458336283
STARLINK-1172,45074,53.1595,0.0001289,15.30199305,474.33374721559994,476.10054191406925,1 45074U 20006AG  26064.72337750  .00000575  00000+0  31542-4 0  9995,2 45074  53.1595 276.2382 0001289 108.8137 251.3004 15.30199305336269
STARLINK-1153,45080,53.1559,0.000148,15.29362433,476.7023683717698,478.7317011660625,1 45080U 20006AN  26064.75675183 -.00002071  00000+0 -59443-4 0  9995,2 45080  53.1559 276.0174 0001480  75.2459 284.8705 15.29362433336272
STARLINK-1151,45081,53.0528,8.48e-05,15.64852414,373.0906953131107,374.23580063516783,1 45081U 20006AP  26064.91668981 -.00010026  00000+0 -95397-4 0  9999,2 45081  53.0528 258.3066 0000848  70.3195 201.5174 15.64852414  5980
STARLINK-1185,45087,53.1592,0.0001638,15.30071233,474.4769293839872,476.7222134847889,1 45087U 20006AV  26064.72965260  .00107133  00000+0  35917-2 0  9998,2 45087  53.1592 260.8032 0001638  89.4797 270.6391 15.30071233336481
STARLINK-1183,45088,53.1593,9.33e-05,15.30190629,474.6036293203488,475.882470037619,1 45088U 20006AW  26064.70328288 -.00001195  00000+0 -28240-4 0  9996,2 45088  53.1593 261.0968 0000933  75.5500 284.5604 15.30190629336470
STARLINK-1152,45096,53.0408,0.0004977,15.37923248,448.85191716364625,455.6508857784702,1 45096U 20006BE  26064.82956447  .00073970  00000+0  19454-2 0  9995,2 45096  53.0408 224.6845 0004977 182.0013 178.0970 15.37923248336995
STARLINK-1184,45098,53.0516,0.0005955,15.09932282,532.2891218886843,540.524343474307,1 45098U 20006BG  26064.69519678  .00005058  00000+0  32591-3 0  9993,2 45098  53.0516 263.4595 0005955 118.9192 241.2396 15.09932282336434
STARLINK-1193,45100,53.0541,7.84e-05,15.5464189,402.662154426559,403.7254670976863,1 45100U 20006BJ  26064.73004939  .00097346  00000+0  14345-2 0  9998,2 45100  53.0541 249.5742 0000784  84.9130 275.1969 15.54641890336630
